{
  "type": "FeatureCollection",
  "features": [
    {
      "type": "Feature",
      "properties": {
        "norad_id": 32393,
        "name": "COSMOS 2434 (721)",
        "group": "gnss",
        "lat": 4.522931321599829,
        "lon": 16.127488556166686,
        "alt_km": 19132.54341541817,
        "timestamp": "2025-12-09T16:56:36.817097+00:00",
        "meta_object_name": "COSMOS 2434 (721)",
        "meta_object_id": "2007-065A",
        "meta_epoch": "2025-12-09T05:35:23.361792",
        "meta_mean_motion": 2.13101149,
        "meta_eccentricity": 0.00042885,
        "meta_inclination": 64.3147,
        "meta_ra_of_asc_node": 198.3216,
        "meta_arg_of_pericenter": 70.9906,
        "meta_mean_anomaly": 101.028,
        "meta_ephemeris_type": 0,
        "meta_classification_type": "U",
        "meta_norad_cat_id": 32393,
        "meta_element_set_no": 999,
        "meta_rev_at_epoch": 13972,
        "meta_bstar": 0,
        "meta_mean_motion_dot": 4.5e-07,
        "meta_mean_motion_ddot": 0,
        "tle_line1": "1 32393U 07065A   25343.23290928  .00000045  00000+0  00000+0 0  9997",
        "tle_line2": "2 32393  64.3147 198.3216 0004288  70.9906 101.0280  2.13101149139726"
      },
      "geometry": {
        "type": "Point",
        "coordinates": [
          16.127488556166686,
          4.522931321599829
        ]
      }
    },
    {
      "type": "Feature",
      "properties": {
        "norad_id": 32395,
        "name": "COSMOS 2436 (723)",
        "group": "gnss",
        "lat": -45.40547188593619,
        "lon": 169.17363290318787,
        "alt_km": 19113.796170731865,
        "timestamp": "2025-12-09T16:56:36.817109+00:00",
        "meta_object_name": "COSMOS 2436 (723)",
        "meta_object_id": "2007-065C",
        "meta_epoch": "2025-12-08T02:01:11.627904",
        "meta_mean_motion": 2.13100022,
        "meta_eccentricity": 0.00177472,
        "meta_inclination": 64.3236,
        "meta_ra_of_asc_node": 198.4308,
        "meta_arg_of_pericenter": 9.2257,
        "meta_mean_anomaly": 134.6131,
        "meta_ephemeris_type": 0,
        "meta_classification_type": "U",
        "meta_norad_cat_id": 32395,
        "meta_element_set_no": 999,
        "meta_rev_at_epoch": 13965,
        "meta_bstar": 0,
        "meta_mean_motion_dot": 5.1e-07,
        "meta_mean_motion_ddot": 0,
        "tle_line1": "1 32395U 07065C   25342.08416236  .00000051  00000+0  00000+0 0  9990",
        "tle_line2": "2 32395  64.3236 198.4308 0017747   9.2257 134.6131  2.13100022139656"
      },
      "geometry": {
        "type": "Point",
        "coordinates": [
          169.17363290318787,
          -45.40547188593619
        ]
      }
    },
    {
      "type": "Feature",
      "properties": {
        "norad_id": 32711,
        "name": "GPS BIIRM-6 (PRN 07)",
        "group": "gnss",
        "lat": 13.509898711663862,
        "lon": 167.37317458224635,
        "alt_km": 20532.26096719363,
        "timestamp": "2025-12-09T16:56:36.817121+00:00",
        "meta_object_name": "GPS BIIRM-6 (PRN 07)",
        "meta_object_id": "2008-012A",
        "meta_epoch": "2025-12-09T04:24:39.828384",
        "meta_mean_motion": 2.00565429,
        "meta_eccentricity": 0.0202295,
        "meta_inclination": 54.4767,
        "meta_ra_of_asc_node": 157.5148,
        "meta_arg_of_pericenter": 244.9075,
        "meta_mean_anomaly": 112.9865,
        "meta_ephemeris_type": 0,
        "meta_classification_type": "U",
        "meta_norad_cat_id": 32711,
        "meta_element_set_no": 999,
        "meta_rev_at_epoch": 12994,
        "meta_bstar": 0,
        "meta_mean_motion_dot": 6.4e-07,
        "meta_mean_motion_ddot": 0,
        "tle_line1": "1 32711U 08012A   25343.18379431  .00000064  00000+0  00000+0 0  9996",
        "tle_line2": "2 32711  54.4767 157.5148 0202295 244.9075 112.9865  2.00565429129941"
      },
      "geometry": {
        "type": "Point",
        "coordinates": [
          167.37317458224635,
          13.509898711663862
        ]
      }
    },
    {
      "type": "Feature",
      "properties": {
        "norad_id": 35752,
        "name": "GPS BIIRM-8 (PRN 05)",
        "group": "gnss",
        "lat": 28.015474294710035,
        "lon": 55.8748060464292,
        "alt_km": 20084.858401050347,
        "timestamp": "2025-12-09T16:56:36.817132+00:00",
        "meta_object_name": "GPS BIIRM-8 (PRN 05)",
        "meta_object_id": "2009-043A",
        "meta_epoch": "2025-12-09T03:40:35.787936",
        "meta_mean_motion": 2.00565819,
        "meta_eccentricity": 0.0051902,
        "meta_inclination": 56.0885,
        "meta_ra_of_asc_node": 34.9246,
        "meta_arg_of_pericenter": 81.9687,
        "meta_mean_anomaly": 273.8421,
        "meta_ephemeris_type": 0,
        "meta_classification_type": "U",
        "meta_norad_cat_id": 35752,
        "meta_element_set_no": 999,
        "meta_rev_at_epoch": 11954,
        "meta_bstar": 0,
        "meta_mean_motion_dot": -8.5e-07,
        "meta_mean_motion_ddot": 0,
        "tle_line1": "1 35752U 09043A   25343.15319199 -.00000085  00000+0  00000+0 0  9995",
        "tle_line2": "2 35752  56.0885  34.9246 0051902  81.9687 273.8421  2.00565819119543"
      },
      "geometry": {
        "type": "Point",
        "coordinates": [
          55.8748060464292,
          28.015474294710035
        ]
      }
    },
    {
      "type": "Feature",
      "properties": {
        "norad_id": 36111,
        "name": "COSMOS 2456 (730)",
        "group": "gnss",
        "lat": -25.161179552449713,
        "lon": 64.74768162609008,
        "alt_km": 19127.3264807338,
        "timestamp": "2025-12-09T16:56:36.817144+00:00",
        "meta_object_name": "COSMOS 2456 (730)",
        "meta_object_id": "2009-070A",
        "meta_epoch": "2025-12-09T05:47:54.858624",
        "meta_mean_motion": 2.13103359,
        "meta_eccentricity": 0.00028383,
        "meta_inclination": 64.8981,
        "meta_ra_of_asc_node": 77.4578,
        "meta_arg_of_pericenter": 298.5783,
        "meta_mean_anomaly": 37.1692,
        "meta_ephemeris_type": 0,
        "meta_classification_type": "U",
        "meta_norad_cat_id": 36111,
        "meta_element_set_no": 999,
        "meta_rev_at_epoch": 12437,
        "meta_bstar": 0,
        "meta_mean_motion_dot": -1.7e-07,
        "meta_mean_motion_ddot": 0,
        "tle_line1": "1 36111U 09070A   25343.24160716 -.00000017  00000+0  00000+0 0  9999",
        "tle_line2": "2 36111  64.8981  77.4578 0002838 298.5783  37.1692  2.13103359124373"
      },
      "geometry": {
        "type": "Point",
        "coordinates": [
          64.74768162609008,
          -25.161179552449713
        ]
      }
    },
    {
      "type": "Feature",
      "properties": {
        "norad_id": 36112,
        "name": "COSMOS 2457 (733)",
        "group": "gnss",
        "lat": 62.68711516215525,
        "lon": -167.79068646492127,
        "alt_km": 19116.05865649936,
        "timestamp": "2025-12-09T16:56:36.817156+00:00",
        "meta_object_name": "COSMOS 2457 (733)",
        "meta_object_id": "2009-070B",
        "meta_epoch": "2025-12-08T14:21:11.818944",
        "meta_mean_motion": 2.13100771,
        "meta_eccentricity": 0.0004866,
        "meta_inclination": 64.883,
        "meta_ra_of_asc_node": 77.3275,
        "meta_arg_of_pericenter": 155.8932,
        "meta_mean_anomaly": 175.3227,
        "meta_ephemeris_type": 0,
        "meta_classification_type": "U",
        "meta_norad_cat_id": 36112,
        "meta_element_set_no": 999,
        "meta_rev_at_epoch": 12436,
        "meta_bstar": 0,
        "meta_mean_motion_dot": -1.5e-07,
        "meta_mean_motion_ddot": 0,
        "tle_line1": "1 36112U 09070B   25342.59805346 -.00000015  00000+0  00000+0 0  9990",
        "tle_line2": "2 36112  64.8830  77.3275 0004866 155.8932 175.3227  2.13100771124367"
      },
      "geometry": {
        "type": "Point",
        "coordinates": [
          -167.79068646492127,
          62.68711516215525
        ]
      }
    },
    {
      "type": "Feature",
      "properties": {
        "norad_id": 36402,
        "name": "COSMOS 2460 (732)",
        "group": "gnss",
        "lat": 63.44223303515046,
        "lon": 75.25167830424385,
        "alt_km": 19129.85992235397,
        "timestamp": "2025-12-09T16:56:36.817168+00:00",
        "meta_object_name": "COSMOS 2460 (732)",
        "meta_object_id": "2010-007C",
        "meta_epoch": "2025-12-09T02:35:27.198816",
        "meta_mean_motion": 2.13105905,
        "meta_eccentricity": 0.00028125,
        "meta_inclination": 65.5319,
        "meta_ra_of_asc_node": 320.8965,
        "meta_arg_of_pericenter": 271.4653,
        "meta_mean_anomaly": 90.3471,
        "meta_ephemeris_type": 0,
        "meta_classification_type": "U",
        "meta_norad_cat_id": 36402,
        "meta_element_set_no": 999,
        "meta_rev_at_epoch": 12268,
        "meta_bstar": 0,
        "meta_mean_motion_dot": -4.8e-07,
        "meta_mean_motion_ddot": 0,
        "tle_line1": "1 36402U 10007C   25343.10795369 -.00000048  00000+0  00000+0 0  9991",
        "tle_line2": "2 36402  65.5319 320.8965 0002812 271.4653  90.3471  2.13105905122689"
      },
      "geometry": {
        "type": "Point",
        "coordinates": [
          75.25167830424385,
          63.44223303515046
        ]
      }
    }
  ]
}